STARLINK-11531 [DTC]    
1 62841U 25019N   25172.77397150  .00179557  00000+0  13704-2 0  9994
2 62841  43.0007  78.8572 0001505 253.9377 106.1325 15.70881762 23784
STARLINK-32755          
1 62842U 25019P   25172.54474371  .00008155  00000+0  30547-3 0  9991
2 62842  42.9980 116.7426 0001185 280.2660  79.8058 15.27587616 23350
STARLINK-32797          
1 62843U 25019Q   25172.22198635  .00011770  00000+0  43616-3 0  9991
2 62843  43.0000 125.5385 0001188 267.1108  92.9608 15.27609124 22267
STARLINK-32794          
1 62844U 25019R   25172.24769951  .00016589  00000+0  61075-3 0  9991
2 62844  43.0010 125.7312 0003361  50.8453 309.2697 15.27590572 22264
STARLINK-32807          
1 62845U 25019S   25172.26392305  .00013878  00000+0  51268-3 0  9990
2 62845  43.0001 118.0759 0001237 256.3112 103.7602 15.27593321 22358
STARLINK-32804          
1 62846U 25019T   25172.55662572  .00014286  00000+0  52757-3 0  9997
2 62846  42.9991 123.7494 0001017 273.9257  86.1479 15.27585887 23282
STARLINK-32799          
1 62847U 25019U   25172.86813515  .00022855  00000+0  83730-3 0  9993
2 62847  42.9988 121.7863 0000931 278.1730  81.9016 15.27587669 23330
STARLINK-32781          
1 62848U 25019V   25172.55533819  .00010521  00000+0  39120-3 0  9997
2 62848  42.9991 123.7409 0001416 271.3946  88.6744 15.27587099 22312
STARLINK-32809          
1 62849U 25019W   25172.20401745  .00024260  00000+0  88855-3 0  9996
2 62849  43.0006 125.4058 0001345 315.6821  44.3922 15.27568142 22265
STARLINK-32868          
1 62854U 25022A   25172.30155453  .00021500  00000+0  54554-3 0  9992
2 62854  53.1586 264.9336 0001832  83.3354 276.7859 15.39643025 22677
STARLINK-32867          
1 62855U 25022B   25172.29226488  .00022766  00000+0  57799-3 0  9997
2 62855  53.1578 264.8654 0001018  92.8191 267.2930 15.39590381 21862
STARLINK-32860          
1 62856U 25022C   25172.53832685  .00029230  00000+0  73820-3 0  9993
2 62856  53.1563 263.5651 0001157  85.6142 274.4995 15.39608819 21902
STARLINK-32873          
1 62857U 25022D   25172.65399422  .00041593  00000+0  10441-2 0  9999
2 62857  53.1583 263.5807 0001342  75.4842 284.6311 15.39620796 22722
STARLINK-32866          
1 62858U 25022E   25172.53799546  .00025687  00000+0  65013-3 0  9990
2 62858  53.1575 263.5597 0000595  81.9695 278.1377 15.39613076 21909
