[
  {
    "OBJECT_NAME": "STARLINK-11531 [DTC]",
    "OBJECT_ID": "2025-019N",
    "EPOCH": "2025-06-21T18:34:31.137600",
    "MEAN_MOTION": 15.70881762,
    "ECCENTRICITY": 0.0001505,
    "INCLINATION": 43.0007,
    "RA_OF_ASC_NODE": 78.8572,
    "ARG_OF_PERICENTER": 253.9377,
    "MEAN_ANOMALY": 106.1325,
    "EPHEMERIS_TYPE": 0,
    "CLASSIFICATION_TYPE": "U",
    "NORAD_CAT_ID": 62841,
    "ELEMENT_SET_NO": 999,
    "REV_AT_EPOCH": 2378,
    "BSTAR": 0.0013704,
    "MEAN_MOTION_DOT": 0.00179557,
    "MEAN_MOTION_DDOT": 0
  },
  {
    "OBJECT_NAME": "STARLINK-32755",
    "OBJECT_ID": "2025-019P",
    "EPOCH": "2025-06-21T13:04:25.856544",
    "MEAN_MOTION": 15.27587616,
    "ECCENTRICITY": 0.0001185,
    "INCLINATION": 42.998,
    "RA_OF_ASC_NODE": 116.7426,
    "ARG_OF_PERICENTER": 280.266,
    "MEAN_ANOMALY": 79.8058,
    "EPHEMERIS_TYPE": 0,
    "CLASSIFICATION_TYPE": "U",
    "NORAD_CAT_ID": 62842,
    "ELEMENT_SET_NO": 999,
    "REV_AT_EPOCH": 2335,
    "BSTAR": 0.00030547,
    "MEAN_MOTION_DOT": 8.155e-05,
    "MEAN_MOTION_DDOT": 0
  },
  {
    "OBJECT_NAME": "STARLINK-32797",
    "OBJECT_ID": "2025-019Q",
    "EPOCH": "2025-06-21T05:19:39.620640",
    "MEAN_MOTION": 15.27609124,
    "ECCENTRICITY": 0.0001188,
    "INCLINATION": 43,
    "RA_OF_ASC_NODE": 125.5385,
    "ARG_OF_PERICENTER": 267.1108,
    "MEAN_ANOMALY": 92.9608,
    "EPHEMERIS_TYPE": 0,
    "CLASSIFICATION_TYPE": "U",
    "NORAD_CAT_ID": 62843,
    "ELEMENT_SET_NO": 999,
    "REV_AT_EPOCH": 2226,
    "BSTAR": 0.00043616,
    "MEAN_MOTION_DOT": 0.0001177,
    "MEAN_MOTION_DDOT": 0
  },
  {
    "OBJECT_NAME": "STARLINK-32794",
    "OBJECT_ID": "2025-019R",
    "EPOCH": "2025-06-21T05:56:41.237664",
    "MEAN_MOTION": 15.27590572,
    "ECCENTRICITY": 0.0003361,
    "INCLINATION": 43.001,
    "RA_OF_ASC_NODE": 125.7312,
    "ARG_OF_PERICENTER": 50.8453,
    "MEAN_ANOMALY": 309.2697,
    "EPHEMERIS_TYPE": 0,
    "CLASSIFICATION_TYPE": "U",
    "NORAD_CAT_ID": 62844,
    "ELEMENT_SET_NO": 999,
    "REV_AT_EPOCH": 2226,
    "BSTAR": 0.00061075,
    "MEAN_MOTION_DOT": 0.00016589,
    "MEAN_MOTION_DDOT": 0
  },
  {
    "OBJECT_NAME": "STARLINK-32807",
    "OBJECT_ID": "2025-019S",
    "EPOCH": "2025-06-21T06:20:02.951520",
    "MEAN_MOTION": 15.27593321,
    "ECCENTRICITY": 0.0001237,
    "INCLINATION": 43.0001,
    "RA_OF_ASC_NODE": 118.0759,
    "ARG_OF_PERICENTER": 256.3112,
    "MEAN_ANOMALY": 103.7602,
    "EPHEMERIS_TYPE": 0,
    "CLASSIFICATION_TYPE": "U",
    "NORAD_CAT_ID": 62845,
    "ELEMENT_SET_NO": 999,
    "REV_AT_EPOCH": 2235,
    "BSTAR": 0.00051268,
    "MEAN_MOTION_DOT": 0.00013878,
    "MEAN_MOTION_DDOT": 0
  },
  {
    "OBJECT_NAME": "STARLINK-32804",
    "OBJECT_ID": "2025-019T",
    "EPOCH": "2025-06-21T13:21:32.462208",
    "MEAN_MOTION": 15.27585887,
    "ECCENTRICITY": 0.0001017,
    "INCLINATION": 42.9991,
    "RA_OF_ASC_NODE": 123.7494,
    "ARG_OF_PERICENTER": 273.9257,
    "MEAN_ANOMALY": 86.1479,
    "EPHEMERIS_TYPE": 0,
    "CLASSIFICATION_TYPE": "U",
    "NORAD_CAT_ID": 62846,
    "ELEMENT_SET_NO": 999,
    "REV_AT_EPOCH": 2328,
    "BSTAR": 0.00052757,
    "MEAN_MOTION_DOT": 0.00014286,
    "MEAN_MOTION_DDOT": 0
  },
  {
    "OBJECT_NAME": "STARLINK-32799",
    "OBJECT_ID": "2025-019U",
    "EPOCH": "2025-06-21T20:50:06.876960",
    "MEAN_MOTION": 15.27587669,
    "ECCENTRICITY": 9.31e-05,
    "INCLINATION": 42.9988,
    "RA_OF_ASC_NODE": 121.7863,
    "ARG_OF_PERICENTER": 278.173,
    "MEAN_ANOMALY": 81.9016,
    "EPHEMERIS_TYPE": 0,
    "CLASSIFICATION_TYPE": "U",
    "NORAD_CAT_ID": 62847,
    "ELEMENT_SET_NO": 999,
    "REV_AT_EPOCH": 2333,
    "BSTAR": 0.0008373,
    "MEAN_MOTION_DOT": 0.00022855,
    "MEAN_MOTION_DDOT": 0
  },
  {
    "OBJECT_NAME": "STARLINK-32781",
    "OBJECT_ID": "2025-019V",
    "EPOCH": "2025-06-21T13:19:41.219616",
    "MEAN_MOTION": 15.27587099,
    "ECCENTRICITY": 0.0001416,
    "INCLINATION": 42.9991,
    "RA_OF_ASC_NODE": 123.7409,
    "ARG_OF_PERICENTER": 271.3946,
    "MEAN_ANOMALY": 88.6744,
    "EPHEMERIS_TYPE": 0,
    "CLASSIFICATION_TYPE": "U",
    "NORAD_CAT_ID": 62848,
    "ELEMENT_SET_NO": 999,
    "REV_AT_EPOCH": 2231,
    "BSTAR": 0.0003912,
    "MEAN_MOTION_DOT": 0.00010521,
    "MEAN_MOTION_DDOT": 0
  },
  {
    "OBJECT_NAME": "STARLINK-32809",
    "OBJECT_ID": "2025-019W",
    "EPOCH": "2025-06-21T04:53:47.107680",
    "MEAN_MOTION": 15.27568142,
    "ECCENTRICITY": 0.0001345,
    "INCLINATION": 43.0006,
    "RA_OF_ASC_NODE": 125.4058,
    "ARG_OF_PERICENTER": 315.6821,
    "MEAN_ANOMALY": 44.3922,
    "EPHEMERIS_TYPE": 0,
    "CLASSIFICATION_TYPE": "U",
    "NORAD_CAT_ID": 62849,
    "ELEMENT_SET_NO": 999,
    "REV_AT_EPOCH": 2226,
    "BSTAR": 0.00088855,
    "MEAN_MOTION_DOT": 0.0002426,
    "MEAN_MOTION_DDOT": 0
  },
  {
    "OBJECT_NAME": "STARLINK-32868",
    "OBJECT_ID": "2025-022A",
    "EPOCH": "2025-06-21T07:14:14.311392",
    "MEAN_MOTION": 15.39643025,
    "ECCENTRICITY": 0.0001832,
    "INCLINATION": 53.1586,
    "RA_OF_ASC_NODE": 264.9336,
    "ARG_OF_PERICENTER": 83.3354,
    "MEAN_ANOMALY": 276.7859,
    "EPHEMERIS_TYPE": 0,
    "CLASSIFICATION_TYPE": "U",
    "NORAD_CAT_ID": 62854,
    "ELEMENT_SET_NO": 999,
    "REV_AT_EPOCH": 2267,
    "BSTAR": 0.00054554,
    "MEAN_MOTION_DOT": 0.000215,
    "MEAN_MOTION_DDOT": 0
  },
  {
    "OBJECT_NAME": "STARLINK-32867",
    "OBJECT_ID": "2025-022B",
    "EPOCH": "2025-06-21T07:00:51.685632",
    "MEAN_MOTION": 15.39590381,
    "ECCENTRICITY": 0.0001018,
    "INCLINATION": 53.1578,
    "RA_OF_ASC_NODE": 264.8654,
    "ARG_OF_PERICENTER": 92.8191,
    "MEAN_ANOMALY": 267.293,
    "EPHEMERIS_TYPE": 0,
    "CLASSIFICATION_TYPE": "U",
    "NORAD_CAT_ID": 62855,
    "ELEMENT_SET_NO": 999,
    "REV_AT_EPOCH": 2186,
    "BSTAR": 0.00057799,
    "MEAN_MOTION_DOT": 0.00022766,
    "MEAN_MOTION_DDOT": 0
  },
  {
    "OBJECT_NAME": "STARLINK-32860",
    "OBJECT_ID": "2025-022C",
    "EPOCH": "2025-06-21T12:55:11.439840",
    "MEAN_MOTION": 15.39608819,
    "ECCENTRICITY": 0.0001157,
    "INCLINATION": 53.1563,
    "RA_OF_ASC_NODE": 263.5651,
    "ARG_OF_PERICENTER": 85.6142,
    "MEAN_ANOMALY": 274.4995,
    "EPHEMERIS_TYPE": 0,
    "CLASSIFICATION_TYPE": "U",
    "NORAD_CAT_ID": 62856,
    "ELEMENT_SET_NO": 999,
    "REV_AT_EPOCH": 2190,
    "BSTAR": 0.0007382,
    "MEAN_MOTION_DOT": 0.0002923,
    "MEAN_MOTION_DDOT": 0
  },
  {
    "OBJECT_NAME": "STARLINK-32873",
    "OBJECT_ID": "2025-022D",
    "EPOCH": "2025-06-21T15:41:45.100608",
    "MEAN_MOTION": 15.39620796,
    "ECCENTRICITY": 0.0001342,
    "INCLINATION": 53.1583,
    "RA_OF_ASC_NODE": 263.5807,
    "ARG_OF_PERICENTER": 75.4842,
    "MEAN_ANOMALY": 284.6311,
    "EPHEMERIS_TYPE": 0,
    "CLASSIFICATION_TYPE": "U",
    "NORAD_CAT_ID": 62857,
    "ELEMENT_SET_NO": 999,
    "REV_AT_EPOCH": 2272,
    "BSTAR": 0.0010441,
    "MEAN_MOTION_DOT": 0.00041593,
    "MEAN_MOTION_DDOT": 0
  },
  {
    "OBJECT_NAME": "STARLINK-32866",
    "OBJECT_ID": "2025-022E",
    "EPOCH": "2025-06-21T12:54:42.807744",
    "MEAN_MOTION": 15.39613076,
    "ECCENTRICITY": 5.95e-05,
    "INCLINATION": 53.1575,
    "RA_OF_ASC_NODE": 263.5597,
    "ARG_OF_PERICENTER": 81.9695,
    "MEAN_ANOMALY": 278.1377,
    "EPHEMERIS_TYPE": 0,
    "CLASSIFICATION_TYPE": "U",
    "NORAD_CAT_ID": 62858,
    "ELEMENT_SET_NO": 999,
    "REV_AT_EPOCH": 2190,
    "BSTAR": 0.00065013,
    "MEAN_MOTION_DOT": 0.00025687,
    "MEAN_MOTION_DDOT": 0
  }
]